1 28692U          19328.61319444  .00000000  00000-0  00000-0 0 00000
2 28692 097.6180 191.6010 0000000 000.0000 328.5010 15.01914300000000
1 28692U          19328.97569444  .00000000  00000-0  00000-0 0 00000
2 28692 097.6170 191.9590 0000000 000.0000 126.0010 15.01914300000000
1 28692U          19329.20347222  .00000000  00000-0  00000-0 0 00000
2 28692 097.6170 192.1830 0000000 000.0000 276.0010 15.01914300000000
1 28692U          19329.63819444  .00000000  00000-0  00000-0 0 00000
2 28692 097.6160 192.6120 0000000 000.0000 103.5010 15.01914300000000
1 28692U          19329.97361111  .00000000  00000-0  00000-0 0 00000
2 28692 097.6150 192.9420 0000000 000.0000 114.7510 15.01914300000000
1 28692U          19330.30555556  .00000000  00000-0  00000-0 0 00000
2 28692 097.6150 193.2690 0000000 000.0000 107.2510 15.01914300000000
1 28692U          19330.58958333  .00000000  00000-0  00000-0 0 00000
2 28692 097.6140 193.5490 0000000 000.0000 201.0010 15.01914300000000
1 28692U          19330.90347222  .00000000  00000-0  00000-0 0 00000
2 28692 097.6140 193.8590 0000000 000.0000 096.0010 15.01914300000000
1 28692U          19331.22222222  .00000000  00000-0  00000-0 0 00000
2 28692 097.6130 194.1730 0000000 000.0000 017.2500 15.01914300000000
1 28692U          19331.50833333  .00000000  00000-0  00000-0 0 00000
2 28692 097.6130 194.4550 0000000 000.0000 122.2500 15.01914300000000
1 28692U          19331.91805556  .00000000  00000-0  00000-0 0 00000
2 28692 097.6120 194.8590 0000000 000.0000 174.7500 15.01914300000000
1 28692U          19332.29930556  .00000000  00000-0  00000-0 0 00000
2 28692 097.6110 195.2340 0000000 000.0000 073.5000 15.01914300000000
1 28692U          19332.64166667  .00000000  00000-0  00000-0 0 00000
2 28692 097.6110 195.5720 0000000 000.0000 122.2500 15.01914300000000
1 28692U          19332.89583333  .00000000  00000-0  00000-0 0 00000
2 28692 097.6100 195.8220 0000000 000.0000 054.7500 15.01914300000000
